STARLINK-11329 [DTC]    
1 61881U 24204H   26166.54328956 -.00002084  00000+0 -12348-4 0  9996
2 61881  53.1600 233.8828 0001332 103.8209 256.2957 15.69702535 92287
STARLINK-11398 [DTC]    
1 61882U 24204J   26166.47470898  .00003541  00000+0  34086-4 0  9992
2 61882  53.1565 234.1596 0001253  69.9555 290.1598 15.69699110 92273
STARLINK-11383 [DTC]    
1 61883U 24204K   26166.91057914  .00000770  00000+0  11216-4 0  9993
2 61883  53.1582 231.8957 0001014 100.5503 259.5629 15.69702558 92341
STARLINK-11359 [DTC]    
1 61884U 24204L   26166.46980337  .00001688  00000+0  18797-4 0  9998
2 61884  53.1588 234.1259 0001210  85.9927 274.1229 15.69698602 92278
STARLINK-11301 [DTC]    
1 61885U 24204M   26166.90567520  .00002966  00000+0  29345-4 0  9994
2 61885  53.1580 231.8622 0001155 109.4226 250.6917 15.69696983 92342
STARLINK-11351 [DTC]    
1 61886U 24204N   26166.90077279  .00002271  00000+0  23614-4 0  9994
2 61886  53.1586 231.8296 0000960  79.9859 280.1267 15.69691637 92349
STARLINK-32410          
1 61887U 24204P   26166.88167173 -.00002237  00000+0 -55158-4 0  9997
2 61887  53.1617  29.4016 0001295  76.1236 283.9911 15.34365402 90150
STARLINK-32377          
1 61888U 24204Q   26166.87954761  .00002065  00000+0  72264-4 0  9998
2 61888  53.1611  29.3862 0001369  76.2606 283.8549 15.34380901 90143
STARLINK-32292          
1 61889U 24204R   26166.89216853  .00001114  00000+0  44122-4 0  9990
2 61889  53.1624  29.4695 0001337  82.3436 277.7719 15.34390250 90157
STARLINK-32501          
1 61890U 24204S   26166.90689713  .00004995  00000+0  15892-3 0  9994
2 61890  53.1603  29.5598 0001329  83.3596 276.7558 15.34390762 90156
STARLINK-32383          
1 61891U 24204T   26166.90058631  .00000661  00000+0  30705-4 0  9991
2 61891  53.1608  29.5208 0001363 115.9076 244.2068 15.34386760 90152
STARLINK-32239          
1 61892U 24204U   26166.90528249  .00001071  00000+0  42840-4 0  9998
2 61892  53.1615  30.9641 0001232 101.1560 258.9582 15.34392825 90138
STARLINK-32489          
1 61893U 24204V   26166.93837878 -.00000133  00000+0  71980-5 0  9990
2 61893  53.1600  29.0469 0001346  76.6636 283.4517 15.34378249 90153
2024-205A               
1 61894U 24205A   26167.18837311  .00006831  00000+0  40143-3 0  9997
2 61894  97.4134 237.3055 0017462 156.7813 203.4210 15.11872041 88057
2024-205B               
1 61895U 24205B   26167.20178211  .00009461  00000+0  32346-3 0  9996
2 61895  97.4140 244.8597 0010431  46.5218 313.6888 15.30437587 88534
2024-205C               
1 61896U 24205C   26167.22588324  .00006217  00000+0  35094-3 0  9998
2 61896  97.4122 238.0875 0050665   7.3835 352.8131 15.12386376 88087
2024-205D               
1 61897U 24205D   26167.20769747  .00005624  00000+0  27910-3 0  9996
2 61897  97.4099 238.7123 0013232  65.9865 294.2752 15.18022903 88139
2024-205E               
1 61898U 24205E   26167.16149536  .00005971  00000+0  34782-3 0  9990
2 61898  97.4116 237.8379 0055644   7.0837 353.1167 15.11050188 88068
2024-205F               
1 61899U 24205F   26167.17917154  .00007015  00000+0  37521-3 0  9996
2 61899  97.4098 238.5438 0007169  45.5531 314.6287 15.15348462 88120
2024-205G               
1 61900U 24205G   26167.16349429  .00005677  00000+0  34446-3 0  9997
2 61900  97.4129 237.0513 0020410 149.8268 210.4142 15.10736207 88008
2024-205H               
1 61901U 24205H   26167.16882012  .00012211  00000+0  40003-3 0  9996
2 61901  97.4112 245.1823 0010263  50.1635 310.0508 15.31749017 88562
2024-205J               
1 61902U 24205J   26167.22463469  .00006191  00000+0  36230-3 0  9992
2 61902  97.4137 237.6347 0013958 167.2193 192.9395 15.12107525 88045
2024-205K               
1 61903U 24205K   26167.20581850  .00011474  00000+0  38822-3 0  9995
2 61903  97.4110 244.1811 0010202  49.1564 311.0559 15.30724562 88496
2024-205L               
1 61904U 24205L   26167.16507847  .00005310  00000+0  33100-3 0  9991
2 61904  97.4128 237.6524 0067189  10.6906 349.5733 15.08069102 88041
2024-205M               
1 61905U 24205M   26167.18807351  .00006492  00000+0  22947-3 0  9996
2 61905  97.3846 241.6886 0004201 331.2384  28.8624 15.29523171 88356
2024-205N               
1 61906U 24205N   26167.18663240  .00018797  00000+0  50446-3 0  9990
2 61906  97.4167 247.9099 0008765  47.7350 312.4637 15.37962619 88720
2024-205P               
1 61907U 24205P   26167.21858942  .00003924  00000+0  20061-3 0  9996
2 61907  97.4130 239.6948 0013259  66.1991 294.0632 15.17166489 88181
2024-205Q               
1 61908U 24205Q   26167.21444480  .00005292  00000+0  26796-3 0  9996
2 61908  97.4132 239.7315 0013309  65.9117 294.3507 15.17341410 88189
KOREASAT 6A             
1 61910U 24206A   26167.04072388 -.00000362  00000+0  00000+0 0  9995
2 61910   0.0184  56.3542 0000715 359.9322 338.7064  1.00271080  5828
STARLINK-32303          
1 61912U 24207A   26166.51441089  .00015850  00000+0  58408-3 0  9993
2 61912  43.0006  89.2305 0002439 255.3248 104.7334 15.27589157 90278
