OBJECT_NAME,OBJECT_ID,EPOCH,MEAN_MOTION,ECCENTRICITY,INCLINATION,RA_OF_ASC_NODE,ARG_OF_PERICENTER,MEAN_ANOMALY,EPHEMERIS_TYPE,CLASSIFICATION_TYPE,NORAD_CAT_ID,ELEMENT_SET_NO,REV_AT_EPOCH,BSTAR,MEAN_MOTION_DOT,MEAN_MOTION_DDOT
STARLINK-11329 [DTC],2024-204H,2026-06-15T13:02:20.217984,15.69702535,.00013327,53.1600,233.8828,103.8209,256.2957,0,U,61881,999,9228,-.12348209E-4,-.2084E-4,0
STARLINK-11398 [DTC],2024-204J,2026-06-15T11:23:34.855872,15.69699110,.00012535,53.1565,234.1596,69.9555,290.1598,0,U,61882,999,9227,.34086437E-4,.3541E-4,0
STARLINK-11383 [DTC],2024-204K,2026-06-15T21:51:14.037696,15.69702558,.0001014,53.1582,231.8957,100.5503,259.5629,0,U,61883,999,9234,.11216E-4,.77E-5,0
STARLINK-11359 [DTC],2024-204L,2026-06-15T11:16:31.011168,15.69698602,.00012104,53.1588,234.1259,85.9927,274.1229,0,U,61884,999,9227,.18797253E-4,.1688E-4,0
STARLINK-11301 [DTC],2024-204M,2026-06-15T21:44:10.337280,15.69696983,.0001155,53.1580,231.8622,109.4226,250.6917,0,U,61885,999,9234,.29345E-4,.2966E-4,0
STARLINK-11351 [DTC],2024-204N,2026-06-15T21:37:06.769056,15.69691637,.000096,53.1586,231.8296,79.9859,280.1267,0,U,61886,999,9234,.23614E-4,.2271E-4,0
STARLINK-32410,2024-204P,2026-06-15T21:09:36.437472,15.34365402,.00012955,53.1617,29.4016,76.1236,283.9911,0,U,61887,999,9015,-.55157905E-4,-.2237E-4,0
STARLINK-32377,2024-204Q,2026-06-15T21:06:32.913504,15.34380901,.00013696,53.1611,29.3862,76.2606,283.8549,0,U,61888,999,9014,.72264143E-4,.2065E-4,0
STARLINK-32292,2024-204R,2026-06-15T21:24:43.360992,15.34390250,.0001337,53.1624,29.4695,82.3436,277.7719,0,U,61889,999,9015,.44122E-4,.1114E-4,0
STARLINK-32501,2024-204S,2026-06-15T21:45:55.912032,15.34390762,.0001329,53.1603,29.5598,83.3596,276.7558,0,U,61890,999,9015,.15892E-3,.4995E-4,0
STARLINK-32383,2024-204T,2026-06-15T21:36:50.657184,15.34386760,.0001363,53.1608,29.5208,115.9076,244.2068,0,U,61891,999,9015,.30705E-4,.661E-5,0
STARLINK-32239,2024-204U,2026-06-15T21:43:36.407136,15.34392825,.0001232,53.1615,30.9641,101.1560,258.9582,0,U,61892,999,9013,.4284E-4,.1071E-4,0
STARLINK-32489,2024-204V,2026-06-15T22:31:15.926592,15.34378249,.0001346,53.1600,29.0469,76.6636,283.4517,0,U,61893,999,9015,.7198E-5,-.133E-5,0
2024-205A,2024-205A,2026-06-16T04:31:15.436704,15.11872041,.0017462,97.4134,237.3055,156.7813,203.4210,0,U,61894,999,8805,.40143E-3,.6831E-4,0
2024-205B,2024-205B,2026-06-16T04:50:33.974304,15.30437587,.0010431,97.4140,244.8597,46.5218,313.6888,0,U,61895,999,8853,.32346E-3,.9461E-4,0
2024-205C,2024-205C,2026-06-16T05:25:16.311936,15.12386376,.0050665,97.4122,238.0875,7.3835,352.8131,0,U,61896,999,8808,.35094E-3,.6217E-4,0
2024-205D,2024-205D,2026-06-16T04:59:05.061408,15.18022903,.0013232,97.4099,238.7123,65.9865,294.2752,0,U,61897,999,8813,.2791E-3,.5624E-4,0
2024-205E,2024-205E,2026-06-16T03:52:33.199104,15.11050188,.0055644,97.4116,237.8379,7.0837,353.1167,0,U,61898,999,8806,.34782E-3,.5971E-4,0
2024-205F,2024-205F,2026-06-16T04:18:00.421056,15.15348462,.0007169,97.4098,238.5438,45.5531,314.6287,0,U,61899,999,8812,.37521E-3,.7015E-4,0
2024-205G,2024-205G,2026-06-16T03:55:25.906656,15.10736207,.002041,97.4129,237.0513,149.8268,210.4142,0,U,61900,999,8800,.34446E-3,.5677E-4,0
2024-205H,2024-205H,2026-06-16T04:03:06.058368,15.31749017,.0010263,97.4112,245.1823,50.1635,310.0508,0,U,61901,999,8856,.40003E-3,.12211E-3,0
2024-205J,2024-205J,2026-06-16T05:23:28.437216,15.12107525,.0013958,97.4137,237.6347,167.2193,192.9395,0,U,61902,999,8804,.3623E-3,.6191E-4,0
2024-205K,2024-205K,2026-06-16T04:56:22.718400,15.30724562,.0010202,97.4110,244.1811,49.1564,311.0559,0,U,61903,999,8849,.38822E-3,.11474E-3,0
2024-205L,2024-205L,2026-06-16T03:57:42.779808,15.08069102,.0067189,97.4128,237.6524,10.6906,349.5733,0,U,61904,999,8804,.331E-3,.531E-4,0
2024-205M,2024-205M,2026-06-16T04:30:49.551264,15.29523171,.0004201,97.3846,241.6886,331.2384,28.8624,0,U,61905,999,8835,.22947E-3,.6492E-4,0
2024-205N,2024-205N,2026-06-16T04:28:45.039360,15.37962619,.0008765,97.4167,247.9099,47.7350,312.4637,0,U,61906,999,8872,.50446E-3,.18797E-3,0
2024-205P,2024-205P,2026-06-16T05:14:46.125888,15.17166489,.0013259,97.4130,239.6948,66.1991,294.0632,0,U,61907,999,8818,.20061E-3,.3924E-4,0
2024-205Q,2024-205Q,2026-06-16T05:08:48.030720,15.17341410,.0013309,97.4132,239.7315,65.9117,294.3507,0,U,61908,999,8818,.26796E-3,.5292E-4,0
KOREASAT 6A,2024-206A,2026-06-16T00:58:38.543232,1.00271080,.0000715,0.0184,56.3542,359.9322,338.7064,0,U,61910,999,582,0,-.362E-5,0
STARLINK-32303,2024-207A,2026-06-15T12:20:45.100896,15.27589157,.00024393,43.0006,89.2305,255.3248,104.7334,0,U,61912,999,9027,.58408024E-3,.1585E-3,0
